NORAD_CAT_ID,OBJECT_NAME,OBJECT_TYPE,EPOCH,MEAN_MOTION,ECCENTRICITY,INCLINATION,RA_OF_ASC_NODE,ARG_OF_PERICENTER,MEAN_ANOMALY,BSTAR,MEAN_MOTION_DOT,MEAN_MOTION_DDOT,TLE_LINE0,TLE_LINE1,TLE_LINE2,SEMIMAJOR_AXIS,PERIOD,APOGEE,PERIGEE,DECAYED
51781.0,STARLINK-3580,PAYLOAD,2023-11-08 00:06:20,15.08817211,0.0001383,53.2172,206.9385,99.7534,260.3614,-0.00018007,-3.151e-05,0.0,0 STARLINK-3580,1 51781U 22017P   23312.00440413 -.00003151  00000-0 -18007-3 0  9992,2 51781  53.2172 206.9385 0001383  99.7534 260.3614 15.08817211 95346,6917.95,95.439,540.772,538.858,0.0
51781.0,STARLINK-3580,PAYLOAD,2023-11-08 22:21:44,15.0883927,0.0001963,53.2164,202.7738,136.9067,223.2079,0.00095314,0.00014914,0.0,0 STARLINK-3580,1 51781U 22017P   23312.93176560  .00014914  00000-0  95314-3 0  9996,2 51781  53.2164 202.7738 0001963 136.9067 223.2079 15.08839270 93836,6917.883,95.438,541.106,538.39,0.0
51781.0,STARLINK-3580,PAYLOAD,2023-11-08 23:57:07,15.08839002,0.0001205,53.2161,202.4729,85.5967,274.5163,0.00093302,0.00014592,0.0,0 STARLINK-3580,1 51781U 22017P   23312.99800858  .00014592  00000-0  93302-3 0  9993,2 51781  53.2161 202.4729 0001205  85.5967 274.5163 15.08839002 95497,6917.883,95.438,540.582,538.915,0.0
51781.0,STARLINK-3580,PAYLOAD,2023-11-09 22:12:31,15.08843147,0.000123,53.2163,198.3106,101.5473,258.5657,0.00018803,2.706e-05,0.0,0 STARLINK-3580,1 51781U 22017P   23313.92536826  .00002706  00000-0  18803-3 0  9995,2 51781  53.2163 198.3106 0001230 101.5473 258.5657 15.08843147 93987,6917.871,95.437,540.587,538.885,0.0
51781.0,STARLINK-3580,PAYLOAD,2023-11-10 01:23:18,15.08844346,0.0001296,53.2163,197.7163,87.3564,272.7577,0.00018074,2.59e-05,0.0,0 STARLINK-3580,1 51781U 22017P   23314.05784799  .00002590  00000-0  18074-3 0  9995,2 51781  53.2163 197.7163 0001296  87.3564 272.7577 15.08844346 95654,6917.867,95.437,540.629,538.836,0.0
51781.0,STARLINK-3580,PAYLOAD,2023-11-10 09:20:14,15.08837302,0.0001463,53.2161,196.2319,92.1056,268.0104,6.5174e-05,7.49e-06,0.0,0 STARLINK-3580,1 51781U 22017P   23314.38905275  .00000749  00000-0  65174-4 0  9993,2 51781  53.2161 196.2319 0001463  92.1056 268.0104 15.08837302 95709,6917.889,95.438,540.766,538.742,0.0
51781.0,STARLINK-3580,PAYLOAD,2023-11-10 20:27:55,15.08842166,0.000138,53.2162,194.1491,92.086,268.029,-0.00015035,-2.68e-05,0.0,0 STARLINK-3580,1 51781U 22017P   23314.85272908 -.00002680  00000-0 -15035-3 0  9993,2 51781  53.2162 194.1491 0001380  92.0860 268.0290 15.08842166 94123,6917.874,95.437,540.693,538.784,0.0
51781.0,STARLINK-3580,PAYLOAD,2023-11-11 09:11:00,15.08840127,0.0001555,53.2158,191.7688,84.9538,275.1632,-9.4008e-05,-1.784e-05,0.0,0 STARLINK-3580,1 51781U 22017P   23315.38264886 -.00001784  00000-0 -94008-4 0  9990,2 51781  53.2158 191.7688 0001555  84.9538 275.1632 15.08840127 94208,6917.88,95.438,540.821,538.669,0.0
51781.0,STARLINK-3580,PAYLOAD,2023-11-11 20:18:43,15.08840327,0.0001562,53.2159,189.6869,82.827,277.29,7.81e-05,9.55e-06,0.0,0 STARLINK-3580,1 51781U 22017P   23315.84633203  .00000955  00000-0  78100-4 0  9996,2 51781  53.2159 189.6869 0001562  82.8270 277.2900 15.08840327 95927,6917.879,95.438,540.825,538.664,0.0
51781.0,STARLINK-3580,PAYLOAD,2023-11-11 21:54:06,15.08841483,0.000132,53.2162,189.3916,85.4519,274.6624,7.9713e-05,9.81e-06,0.0,0 STARLINK-3580,1 51781U 22017P   23315.91257229  .00000981  00000-0  79713-4 0  9994,2 51781  53.2162 189.3916 0001320  85.4519 274.6624 15.08841483 94284,6917.876,95.437,540.654,538.828,0.0
51781.0,STARLINK-3580,PAYLOAD,2023-11-12 09:01:47,15.08846562,0.0001267,53.2163,187.309,95.837,264.2767,8.6897e-05,1.096e-05,0.0,0 STARLINK-3580,1 51781U 22017P   23316.37624766  .00001096  00000-0  86897-4 0  9998,2 51781  53.2163 187.3090 0001267  95.8370 264.2767 15.08846562 94350,6917.86,95.437,540.602,538.849,0.0
51781.0,STARLINK-3580,PAYLOAD,2023-11-12 21:44:52,15.08850545,0.0001474,53.2158,184.9297,98.5239,261.592,0.00014964,2.095e-05,0.0,0 STARLINK-3580,1 51781U 22017P   23316.90616414  .00002095  00000-0  14964-3 0  9993,2 51781  53.2158 184.9297 0001474  98.5239 261.5920 15.08850545 94436,6917.848,95.437,540.733,538.693,0.0
51781.0,STARLINK-3580,PAYLOAD,2023-11-13 08:52:34,15.08847644,0.0001352,53.2164,182.8493,88.047,272.0677,9.4067e-05,1.21e-05,0.0,0 STARLINK-3580,1 51781U 22017P   23317.36984565  .00001210  00000-0  94067-4 0  9990,2 51781  53.2164 182.8493 0001352  88.0470 272.0677 15.08847644 94504,6917.857,95.437,540.657,538.787,0.0
51781.0,STARLINK-3580,PAYLOAD,2023-11-14 00:46:26,15.08846327,0.0001558,53.2169,179.8741,92.3051,267.8119,7.8281e-05,9.58e-06,0.0,0 STARLINK-3580,1 51781U 22017P   23318.03224623  .00000958  00000-0  78281-4 0  9995,2 51781  53.2169 179.8741 0001558  92.3051 267.8119 15.08846327 94603,6917.861,95.437,540.804,538.648,0.0
51781.0,STARLINK-3580,PAYLOAD,2023-11-14 21:26:26,15.08843521,0.0001519,53.2149,176.0072,94.4779,265.6387,4.0758e-06,-2.23e-06,0.0,0 STARLINK-3580,1 51781U 22017P   23318.89336685 -.00000223  00000-0  40758-5 0  9996,2 51781  53.2149 176.0072 0001519  94.4779 265.6387 15.08843521 94734,6917.87,95.437,540.785,538.684,0.0
51781.0,STARLINK-3580,PAYLOAD,2023-11-15 21:17:14,15.08837575,0.0001323,53.2106,171.5473,94.5166,265.5978,4.5884e-05,4.42e-06,0.0,0 STARLINK-3580,1 51781U 22017P   23319.88697005  .00000442  00000-0  45884-4 0  9998,2 51781  53.2106 171.5473 0001323  94.5166 265.5978 15.08837575 94889,6917.888,95.438,540.668,538.838,0.0
51781.0,STARLINK-3580,PAYLOAD,2023-11-16 00:28:00,15.08835275,0.00014,53.2144,170.9545,96.0235,264.0916,7.649e-05,9.29e-06,0.0,0 STARLINK-3580,1 51781U 22017P   23320.01945090  .00000929  00000-0  76490-4 0  9992,2 51781  53.2144 170.9545 0001400  96.0235 264.0916 15.08835275 96551,6917.895,95.438,540.728,538.791,0.0
51781.0,STARLINK-3580,PAYLOAD,2023-11-16 21:08:01,15.08834729,0.0001406,53.2142,167.0884,95.6062,264.509,5.1978e-05,5.39e-06,0.0,0 STARLINK-3580,1 51781U 22017P   23320.88057428  .00000539  00000-0  51978-4 0  9997,2 51781  53.2142 167.0884 0001406  95.6062 264.5090 15.08834729 95034,6917.897,95.438,540.734,538.789,0.0
51781.0,STARLINK-3580,PAYLOAD,2023-11-17 00:18:47,15.08835481,0.0001483,53.2147,166.4939,96.0299,264.0862,5.2798e-05,5.52e-06,0.0,0 STARLINK-3580,1 51781U 22017P   23321.01305420  .00000552  00000-0  52798-4 0  9997,2 51781  53.2147 166.4939 0001483  96.0299 264.0862 15.08835481 95055,6917.894,95.438,540.785,538.733,0.0
51781.0,STARLINK-3580,PAYLOAD,2023-11-18 12:52:40,15.08838854,0.0001333,53.2154,159.6533,90.6735,269.441,8.1795e-05,1.014e-05,0.0,0 STARLINK-3580,1 51781U 22017P   23322.53657522  .00001014  00000-0  81795-4 0  9991,2 51781  53.2154 159.6533 0001333  90.6735 269.4410 15.08838854 96939,6917.884,95.438,540.671,538.827,0.0
51781.0,STARLINK-3580,PAYLOAD,2023-11-19 12:43:26,15.08841214,0.0001394,53.2144,155.1929,89.8936,270.2215,8.3452e-05,1.04e-05,0.0,0 STARLINK-3580,1 51781U 22017P   23323.53017332  .00001040  00000-0  83452-4 0  9992,2 51781  53.2144 155.1929 0001394  89.8936 270.2215 15.08841214 95439,6917.877,95.437,540.706,538.777,0.0
51781.0,STARLINK-3580,PAYLOAD,2023-11-19 19:04:59,15.08843485,0.0001352,53.2149,154.0038,89.1796,270.9351,4.1659e-05,3.75e-06,0.0,0 STARLINK-3580,1 51781U 22017P   23323.79513341  .00000375  00000-0  41659-4 0  9994,2 51781  53.2149 154.0038 0001352  89.1796 270.9351 15.08843485 97122,6917.87,95.437,540.67,538.799,0.0
51781.0,STARLINK-3580,PAYLOAD,2023-11-19 20:40:22,15.08844017,0.0001384,53.2155,153.7066,88.9528,271.1622,4.3771e-05,4.09e-06,0.0,0 STARLINK-3580,1 51781U 22017P   23323.86137247  .00000409  00000-0  43771-4 0  9994,2 51781  53.2155 153.7066 0001384  88.9528 271.1622 15.08844017 95484,6917.868,95.437,540.691,538.776,0.0
51781.0,STARLINK-3580,PAYLOAD,2023-11-20 12:34:13,15.08842791,0.0001392,53.2154,150.733,88.6504,271.4648,2.6253e-05,1.3e-06,0.0,0 STARLINK-3580,1 51781U 22017P   23324.52377282  .00000130  00000-0  26253-4 0  9990,2 51781  53.2154 150.7330 0001392  88.6504 271.4648 15.08842791 95583,6917.872,95.437,540.7,538.774,0.0
51781.0,STARLINK-3580,PAYLOAD,2023-11-20 18:55:46,15.08842911,0.0001393,53.2154,149.5438,87.462,272.6531,3.2447e-05,2.29e-06,0.0,0 STARLINK-3580,1 51781U 22017P   23324.78873199  .00000229  00000-0  32447-4 0  9997,2 51781  53.2154 149.5438 0001393  87.4620 272.6531 15.08842911 95628,6917.871,95.437,540.7,538.773,0.0
51781.0,STARLINK-3580,PAYLOAD,2023-11-20 22:06:32,15.08844435,0.0001393,53.2157,148.9493,87.059,273.0561,4.2786e-05,3.93e-06,0.0,0 STARLINK-3580,1 51781U 22017P   23324.92121019  .00000393  00000-0  42786-4 0  9999,2 51781  53.2157 148.9493 0001393  87.0590 273.0561 15.08844435 97293,6917.867,95.437,540.695,538.768,0.0
51781.0,STARLINK-3580,PAYLOAD,2023-11-21 12:25:01,15.0883962,0.0001396,53.2154,146.273,86.4494,273.6657,2.6678e-05,1.37e-06,0.0,0 STARLINK-3580,1 51781U 22017P   23325.51737333  .00000137  00000-0  26678-4 0  9995,2 51781  53.2154 146.2730 0001396  86.4494 273.6657 15.08839620 95733,6917.882,95.438,540.712,538.781,0.0
51781.0,STARLINK-3580,PAYLOAD,2023-11-21 18:46:33,15.08841066,0.0001421,53.2156,145.0831,90.1063,270.0092,3.8904e-05,3.31e-06,0.0,0 STARLINK-3580,1 51781U 22017P   23325.78233202  .00000331  00000-0  38904-4 0  9991,2 51781  53.2156 145.0831 0001421  90.1063 270.0092 15.08841066 95772,6917.877,95.437,540.725,538.759,0.0
51781.0,STARLINK-3580,PAYLOAD,2023-11-22 18:37:20,15.08845096,0.0001419,53.2161,140.6227,89.3003,270.8151,6.9355e-05,8.16e-06,0.0,0 STARLINK-3580,1 51781U 22017P   23326.77592808  .00000816  00000-0  69355-4 0  9993,2 51781  53.2161 140.6227 0001419  89.3003 270.8151 15.08845096 95927,6917.865,95.437,540.711,538.748,0.0
51781.0,STARLINK-3580,PAYLOAD,2023-11-23 10:31:12,15.08836005,0.0001475,53.2164,137.6498,88.2029,271.9132,2.6845e-05,1.39e-06,0.0,0 STARLINK-3580,1 51781U 22017P   23327.43833602  .00000139  00000-0  26845-4 0  9992,2 51781  53.2164 137.6498 0001475  88.2029 271.9132 15.08836005 97679,6917.893,95.438,540.778,538.737,0.0
